XRISM                   
1 57800U 23137A   24291.75696158  .00010506  00000+0  74343-3 0  9996
2 57800  31.0036 311.2005 0008459 341.2716  18.7609 15.03601246 61058
